start=new Date('2021-10-11T00:00:00.000Z').valueOf();
sats=[{"BSTAR":"0.00000717000000","APOAPSIS":"548.137","MEAN_ELEMENT_THEORY":"SGP4","NORAD_CAT_ID":"46703","PERIAPSIS":"546.315","SEMIMAJOR_AXIS":"6925.361","SITE":"AFETR","MEAN_MOTION_DOT":"-0.00000175","RA_OF_ASC_NODE":"273.6265","LAUNCH_DATE":"2020-10-18","GP_ID":"186841234","TIME_SYSTEM":"UTC","ARG_OF_PERICENTER":"76.2583","OBJECT_NAME":"STARLINK-1803","TLE_LINE1":"1 46703U 20073AK  21283.70297834 -.00000175  00000-0  71700-5 0  9992","OBJECT_ID":"2020-073AK","MEAN_ANOMALY":"283.8552","PERIOD":"95.592","COUNTRY_CODE":"US","INCLINATION":"53.0533","CLASSIFICATION_TYPE":"U","EPHEMERIS_TYPE":"0","ECCENTRICITY":"0.00013160","EPOCH":"2021-10-10T16:52:17.328576","RCS_SIZE":"LARGE","ELEMENT_SET_NO":"999","MEAN_MOTION_DDOT":"0.0000000000000","REF_FRAME":"TEME","MEAN_MOTION":"15.06395939","OBJECT_TYPE":"PAYLOAD","CENTER_NAME":"EARTH","TLE_LINE2":"2 46703  53.0533 273.6265 0001316  76.2583 283.8552 15.06395939 54310","REV_AT_EPOCH":"5431","DECAY_DATE":null,"FILE":"3155694"},{"CENTER_NAME":"EARTH","OBJECT_TYPE":"PAYLOAD","MEAN_MOTION":"15.06397429","REF_FRAME":"TEME","MEAN_MOTION_DDOT":"0.0000000000000","ELEMENT_SET_NO":"999","FILE":"3155694","DECAY_DATE":null,"REV_AT_EPOCH":"5463","TLE_LINE2":"2 46704  53.0558 252.5028 0003161 147.3480 212.7705 15.06397429 54639","INCLINATION":"53.0558","CLASSIFICATION_TYPE":"U","COUNTRY_CODE":"US","RCS_SIZE":"LARGE","EPOCH":"2021-10-10T22:45:15.544512","EPHEMERIS_TYPE":"0","ECCENTRICITY":"0.00031610","OBJECT_NAME":"STARLINK-1804","ARG_OF_PERICENTER":"147.3480","TIME_SYSTEM":"UTC","GP_ID":"186839982","LAUNCH_DATE":"2020-10-18","PERIOD":"95.592","MEAN_ANOMALY":"212.7705","TLE_LINE1":"1 46704U 20073AL  21283.94809658  .00001846  00000-0  14286-3 0  9991","OBJECT_ID":"2020-073AL","NORAD_CAT_ID":"46704","MEAN_ELEMENT_THEORY":"SGP4","BSTAR":"0.00014286000000","APOAPSIS":"549.411","RA_OF_ASC_NODE":"252.5028","MEAN_MOTION_DOT":"0.00001846","SITE":"AFETR","SEMIMAJOR_AXIS":"6925.356","PERIAPSIS":"545.032"},{"COUNTRY_CODE":"US","INCLINATION":"53.0532","CLASSIFICATION_TYPE":"U","EPHEMERIS_TYPE":"0","ECCENTRICITY":"0.00013350","RCS_SIZE":"LARGE","EPOCH":"2021-10-10T10:20:10.551552","MEAN_MOTION_DDOT":"0.0000000000000","ELEMENT_SET_NO":"999","REF_FRAME":"TEME","MEAN_MOTION":"15.06403446","OBJECT_TYPE":"PAYLOAD","CENTER_NAME":"EARTH","TLE_LINE2":"2 46705  53.0532 289.8366 0001335  75.0102 285.1035 15.06403446 54063","REV_AT_EPOCH":"5406","FILE":"3155126","DECAY_DATE":null,"BSTAR":"0.00002498100000","APOAPSIS":"548.128","MEAN_ELEMENT_THEORY":"SGP4","NORAD_CAT_ID":"46705","PERIAPSIS":"546.278","SEMIMAJOR_AXIS":"6925.338","SITE":"AFETR","MEAN_MOTION_DOT":"0.00000091","RA_OF_ASC_NODE":"289.8366","LAUNCH_DATE":"2020-10-18","GP_ID":"186782610","ARG_OF_PERICENTER":"75.0102","TIME_SYSTEM":"UTC","OBJECT_NAME":"STARLINK-1805","OBJECT_ID":"2020-073AM","TLE_LINE1":"1 46705U 20073AM  21283.43067768  .00000091  00000-0  24981-4 0  9999","PERIOD":"95.592","MEAN_ANOMALY":"285.1035"},{"PERIAPSIS":"546.249","RA_OF_ASC_NODE":"273.7649","MEAN_MOTION_DOT":"-0.00000387","SITE":"AFETR","SEMIMAJOR_AXIS":"6925.339","MEAN_ELEMENT_THEORY":"SGP4","BSTAR":"-0.00000708730000","APOAPSIS":"548.159","NORAD_CAT_ID":"46706","OBJECT_ID":"2020-073AN","TLE_LINE1":"1 46706U 20073AN  21283.66980735 -.00000387  00000-0 -70873-5 0  9995","PERIOD":"95.592","MEAN_ANOMALY":"283.2860","GP_ID":"186840484","LAUNCH_DATE":"2020-10-18","OBJECT_NAME":"STARLINK-1807","ARG_OF_PERICENTER":"76.8283","TIME_SYSTEM":"UTC","ECCENTRICITY":"0.00013790","EPHEMERIS_TYPE":"0","RCS_SIZE":"LARGE","EPOCH":"2021-10-10T16:04:31.355040","COUNTRY_CODE":"US","INCLINATION":"53.0533","CLASSIFICATION_TYPE":"U","TLE_LINE2":"2 46706  53.0533 273.7649 0001379  76.8283 283.2860 15.06403012 54310","DECAY_DATE":null,"FILE":"3155694","REV_AT_EPOCH":"5431","REF_FRAME":"TEME","MEAN_MOTION_DDOT":"0.0000000000000","ELEMENT_SET_NO":"999","OBJECT_TYPE":"PAYLOAD","CENTER_NAME":"EARTH","MEAN_MOTION":"15.06403012"},{"RA_OF_ASC_NODE":"253.8147","SITE":"AFETR","SEMIMAJOR_AXIS":"6925.336","MEAN_MOTION_DOT":"0.00000595","PERIAPSIS":"544.476","NORAD_CAT_ID":"46707","MEAN_ELEMENT_THEORY":"SGP4","APOAPSIS":"549.926","BSTAR":"0.00005889900000","PERIOD":"95.592","MEAN_ANOMALY":"214.5704","OBJECT_ID":"2020-073AP","TLE_LINE1":"1 46707U 20073AP  21283.66059018  .00000595  00000-0  58899-4 0  9999","OBJECT_NAME":"STARLINK-1808","ARG_OF_PERICENTER":"145.5541","TIME_SYSTEM":"UTC","GP_ID":"186840735","LAUNCH_DATE":"2020-10-18","RCS_SIZE":"LARGE","EPOCH":"2021-10-10T15:51:14.991552","EPHEMERIS_TYPE":"0","ECCENTRICITY":"0.00039350","INCLINATION":"53.0534","CLASSIFICATION_TYPE":"U","COUNTRY_CODE":"US","FILE":"3155694","DECAY_DATE":null,"REV_AT_EPOCH":"5459","TLE_LINE2":"2 46707  53.0534 253.8147 0003935 145.5541 214.5704 15.06404059 54591","OBJECT_TYPE":"PAYLOAD","CENTER_NAME":"EARTH","MEAN_MOTION":"15.06404059","REF_FRAME":"TEME","MEAN_MOTION_DDOT":"0.0000000000000","ELEMENT_SET_NO":"999"},{"SEMIMAJOR_AXIS":"6811.628","SITE":"AFETR","MEAN_MOTION_DOT":"0.00614801","RA_OF_ASC_NODE":"252.7263","PERIAPSIS":"432.784","NORAD_CAT_ID":"46708","APOAPSIS":"434.202","BSTAR":"0.01214100000000","MEAN_ELEMENT_THEORY":"SGP4","MEAN_ANOMALY":"290.9010","PERIOD":"93.247","OBJECT_ID":"2020-073AQ","TLE_LINE1":"1 46708U 20073AQ  21283.37824626  .00614801  00000-0  12141-1 0  9991","ARG_OF_PERICENTER":"69.2106","TIME_SYSTEM":"UTC","OBJECT_NAME":"STARLINK-1809","LAUNCH_DATE":"2020-10-18","GP_ID":"186839483","RCS_SIZE":"LARGE","EPOCH":"2021-10-10T09:04:40.476864","ECCENTRICITY":"0.00010410","EPHEMERIS_TYPE":"0","INCLINATION":"53.0539","CLASSIFICATION_TYPE":"U","COUNTRY_CODE":"US","REV_AT_EPOCH":"5458","DECAY_DATE":null,"FILE":"3155694","TLE_LINE2":"2 46708  53.0539 252.7263 0001041  69.2106 290.9010 15.44281072 54586","MEAN_MOTION":"15.44281072","OBJECT_TYPE":"PAYLOAD","CENTER_NAME":"EARTH","MEAN_MOTION_DDOT":"0.0000000000000","ELEMENT_SET_NO":"999","REF_FRAME":"TEME"},{"MEAN_ELEMENT_THEORY":"SGP4","BSTAR":"0.00001354500000","APOAPSIS":"548.143","NORAD_CAT_ID":"46709","PERIAPSIS":"546.270","RA_OF_ASC_NODE":"288.5067","MEAN_MOTION_DOT":"-0.00000080","SITE":"AFETR","SEMIMAJOR_AXIS":"6925.342","GP_ID":"186839733","LAUNCH_DATE":"2020-10-18","OBJECT_NAME":"STARLINK-1810","ARG_OF_PERICENTER":"73.8488","TIME_SYSTEM":"UTC","OBJECT_ID":"2020-073AR","TLE_LINE1":"1 46709U 20073AR  21283.72461685 -.00000080  00000-0  13545-4 0  9994","PERIOD":"95.592","MEAN_ANOMALY":"286.2650","COUNTRY_CODE":"US","INCLINATION":"53.0541","CLASSIFICATION_TYPE":"U","EPHEMERIS_TYPE":"0","ECCENTRICITY":"0.00013520","RCS_SIZE":"LARGE","EPOCH":"2021-10-10T17:23:26.895840","REF_FRAME":"TEME","MEAN_MOTION_DDOT":"0.0000000000000","ELEMENT_SET_NO":"999","CENTER_NAME":"EARTH","OBJECT_TYPE":"PAYLOAD","MEAN_MOTION":"15.06402274","TLE_LINE2":"2 46709  53.0541 288.5067 0001352  73.8488 286.2650 15.06402274 54101","DECAY_DATE":null,"FILE":"3155694","REV_AT_EPOCH":"5410"},{"ECCENTRICITY":"0.00016860","EPHEMERIS_TYPE":"0","RCS_SIZE":"LARGE","EPOCH":"2021-10-10T18:07:15.538080","COUNTRY_CODE":"US","INCLINATION":"53.0541","CLASSIFICATION_TYPE":"U","TLE_LINE2":"2 46710  53.0541 288.3941 0001686  72.6030 287.5144 15.06406772 54112","DECAY_DATE":null,"FILE":"3155694","REV_AT_EPOCH":"5411","REF_FRAME":"TEME","MEAN_MOTION_DDOT":"0.0000000000000","ELEMENT_SET_NO":"999","OBJECT_TYPE":"PAYLOAD","CENTER_NAME":"EARTH","MEAN_MOTION":"15.06406772","PERIAPSIS":"546.025","RA_OF_ASC_NODE":"288.3941","SITE":"AFETR","MEAN_MOTION_DOT":"0.00004892","SEMIMAJOR_AXIS":"6925.328","MEAN_ELEMENT_THEORY":"SGP4","BSTAR":"0.00034704000000","APOAPSIS":"548.360","NORAD_CAT_ID":"46710","OBJECT_ID":"2020-073AS","TLE_LINE1":"1 46710U 20073AS  21283.75504095  .00004892  00000-0  34704-3 0  9995","PERIOD":"95.592","MEAN_ANOMALY":"287.5144","GP_ID":"186840984","LAUNCH_DATE":"2020-10-18","OBJECT_NAME":"STARLINK-1811","ARG_OF_PERICENTER":"72.6030","TIME_SYSTEM":"UTC"},{"INCLINATION":"53.0540","CLASSIFICATION_TYPE":"U","COUNTRY_CODE":"US","RCS_SIZE":"LARGE","EPOCH":"2021-10-10T06:20:39.137568","ECCENTRICITY":"0.00013640","EPHEMERIS_TYPE":"0","CENTER_NAME":"EARTH","OBJECT_TYPE":"PAYLOAD","MEAN_MOTION":"15.06400346","REF_FRAME":"TEME","MEAN_MOTION_DDOT":"0.0000000000000","ELEMENT_SET_NO":"999","FILE":"3155126","DECAY_DATE":null,"REV_AT_EPOCH":"5425","TLE_LINE2":"2 46711  53.0540 275.5956 0001364  76.8277 283.2864 15.06400346 54256","NORAD_CAT_ID":"46711","MEAN_ELEMENT_THEORY":"SGP4","APOAPSIS":"548.157","BSTAR":"0.00011141000000","RA_OF_ASC_NODE":"275.5956","MEAN_MOTION_DOT":"0.00001378","SITE":"AFETR","SEMIMAJOR_AXIS":"6925.347","PERIAPSIS":"546.268","OBJECT_NAME":"STARLINK-1813","ARG_OF_PERICENTER":"76.8277","TIME_SYSTEM":"UTC","GP_ID":"186782111","LAUNCH_DATE":"2020-10-18","MEAN_ANOMALY":"283.2864","PERIOD":"95.592","OBJECT_ID":"2020-073AT","TLE_LINE1":"1 46711U 20073AT  21283.26434187  .00001378  00000-0  11141-3 0  9992"},{"REV_AT_EPOCH":"5431","DECAY_DATE":null,"FILE":"3155694","TLE_LINE2":"2 46712  53.0548 273.6683 0001319  74.6187 285.4948 15.06403035 54319","MEAN_MOTION":"15.06403035","OBJECT_TYPE":"PAYLOAD","CENTER_NAME":"EARTH","MEAN_MOTION_DDOT":"0.0000000000000","ELEMENT_SET_NO":"999","REF_FRAME":"TEME","RCS_SIZE":"LARGE","EPOCH":"2021-10-10T16:40:19.143264","ECCENTRICITY":"0.00013190","EPHEMERIS_TYPE":"0","INCLINATION":"53.0548","CLASSIFICATION_TYPE":"U","COUNTRY_CODE":"US","MEAN_ANOMALY":"285.4948","PERIOD":"95.592","TLE_LINE1":"1 46712U 20073AU  21283.69466601  .00000059  00000-0  22860-4 0  9992","OBJECT_ID":"2020-073AU","ARG_OF_PERICENTER":"74.6187","TIME_SYSTEM":"UTC","OBJECT_NAME":"STARLINK-1814","LAUNCH_DATE":"2020-10-18","GP_ID":"186839983","MEAN_MOTION_DOT":"0.00000059","SITE":"AFETR","SEMIMAJOR_AXIS":"6925.339","RA_OF_ASC_NODE":"273.6683","PERIAPSIS":"546.291","NORAD_CAT_ID":"46712","APOAPSIS":"548.118","BSTAR":"0.00002286000000","MEAN_ELEMENT_THEORY":"SGP4"}];
